SL-8 R/B                
1 21088U 91006B   26099.88074292  .00000112  00000+0  97072-4 0  9993
2 21088  82.9424 146.8538 0021193 310.1590 223.5592 13.77499974768368
OKEAN-3                 
1 21397U 91039A   26099.53100795  .00002447  00000+0  17028-3 0  9997
2 21397  82.5157 306.9558 0013381 222.1792 137.8407 15.04998740869672
COSMOS 2151             
1 21422U 91042A   26099.83253891  .00002126  00000+0  16763-3 0  9998
2 21422  82.4965  53.6274 0011235 321.2423  38.7994 15.00253216867863
SL-14 R/B               
1 21423U 91042B   26099.34662748  .00000424  00000+0  50579-4 0  9993
2 21423  82.4960 191.4431 0018112 136.9475 223.3160 14.81862251857616
ERS-1                   
1 21574U 91050A   26099.49045209  .00000324  00000+0  11800-3 0  9994
2 21574  98.7854 118.4964 0033069 110.3893 250.0851 14.39474736820167
ARIANE 40 R/B           
1 21610U 91050F   26099.39880234  .00000294  00000+0  10051-3 0  9992
2 21610  98.1950 150.4730 0002806   6.8386 353.2842 14.42917735823420
INTERCOSMOS 25          
1 21819U 91086A   26099.52886576  .00000964  00000+0  18310-3 0  9992
2 21819  82.6002 291.3604 1486090  50.4793 321.8459 12.12107208500429
SL-8 R/B                
1 21876U 92008B   26099.78219389  .00000048  00000+0  33962-4 0  9994
2 21876  82.9253 244.6443 0035561  49.4489  62.2650 13.75970126713698
SL-8 R/B                
1 21938U 92020B   26099.54374794 -.00000003  00000+0 -18312-4 0  9998
2 21938  82.9282 130.8493 0028363 209.1745 261.9869 13.75550472705376
USA 81                  
1 21949U 92023A   26099.53580703  .00000176  00000+0  57730-4 0  9997
2 21949  85.0036 113.6365 0001351  75.2322 284.9020 14.32378633 99200
COSMOS 2219             
1 22219U 92076A   26099.78723916 -.00000042  00000+0  28914-5 0  9994
2 22219  71.0595 313.0639 0017499 159.0613 201.1230 14.14088099722773
SL-16 R/B               
1 22220U 92076B   26099.48788667  .00000176  00000+0  11154-3 0  9990
2 22220  70.9977 123.5003 0011194  40.4236  71.0975 14.16863291726193
COSMOS 2221             
1 22236U 92080A   26099.86788248  .00001948  00000+0  16957-3 0  9993
2 22236  82.5023 249.2061 0015712  88.6268 271.6754 14.96345804785450
SL-16 R/B               
1 22285U 92093B   26099.76361219 -.00000212  00000+0 -84261-4 0  9994
2 22285  71.0209 299.0349 0006611 263.2825  96.7546 14.15455028717555
COSMOS 2228             
1 22286U 92094A   26099.79648890  .00002348  00000+0  19938-3 0  9990
2 22286  82.5202 207.5287 0017660 192.8849 167.1925 14.97365064780712
SL-16 R/B               
1 22566U 93016B   26099.52446864  .00000241  00000+0  14798-3 0  9993
2 22566  71.0070 150.4233 0012531 275.1295  84.8397 14.15312114706532
COSMOS 2242             
1 22626U 93024A   26099.65854864  .00002515  00000+0  21759-3 0  9997
2 22626  82.5184 237.0871 0015907 196.5125 163.5581 14.96698908785028
