[{"OBJECT_NAME":"SL-8 R/B","OBJECT_ID":"1991-006B","EPOCH":"2026-04-09T21:08:16.188288","MEAN_MOTION":13.77499974,"ECCENTRICITY":0.0021193,"INCLINATION":82.9424,"RA_OF_ASC_NODE":146.8538,"ARG_OF_PERICENTER":310.159,"MEAN_ANOMALY":223.5592,"EPHEMERIS_TYPE":0,"CLASSIFICATION_TYPE":"U","NORAD_CAT_ID":21088,"ELEMENT_SET_NO":999,"REV_AT_EPOCH":76836,"BSTAR":9.7072e-5,"MEAN_MOTION_DOT":1.12e-6,"MEAN_MOTION_DDOT":0},{"OBJECT_NAME":"OKEAN-3","OBJECT_ID":"1991-039A","EPOCH":"2026-04-09T12:44:39.086880","MEAN_MOTION":15.0499874,"ECCENTRICITY":0.0013381,"INCLINATION":82.5157,"RA_OF_ASC_NODE":306.9558,"ARG_OF_PERICENTER":222.1792,"MEAN_ANOMALY":137.8407,"EPHEMERIS_TYPE":0,"CLASSIFICATION_TYPE":"U","NORAD_CAT_ID":21397,"ELEMENT_SET_NO":999,"REV_AT_EPOCH":86967,"BSTAR":0.00017028,"MEAN_MOTION_DOT":2.447e-5,"MEAN_MOTION_DDOT":0},{"OBJECT_NAME":"COSMOS 2151","OBJECT_ID":"1991-042A","EPOCH":"2026-04-09T19:58:51.361824","MEAN_MOTION":15.00253216,"ECCENTRICITY":0.0011235,"INCLINATION":82.4965,"RA_OF_ASC_NODE":53.6274,"ARG_OF_PERICENTER":321.2423,"MEAN_ANOMALY":38.7994,"EPHEMERIS_TYPE":0,"CLASSIFICATION_TYPE":"U","NORAD_CAT_ID":21422,"ELEMENT_SET_NO":999,"REV_AT_EPOCH":86786,"BSTAR":0.00016763,"MEAN_MOTION_DOT":2.126e-5,"MEAN_MOTION_DDOT":0},{"OBJECT_NAME":"SL-14 R/B","OBJECT_ID":"1991-042B","EPOCH":"2026-04-09T08:19:08.614272","MEAN_MOTION":14.81862251,"ECCENTRICITY":0.0018112,"INCLINATION":82.496,"RA_OF_ASC_NODE":191.4431,"ARG_OF_PERICENTER":136.9475,"MEAN_ANOMALY":223.316,"EPHEMERIS_TYPE":0,"CLASSIFICATION_TYPE":"U","NORAD_CAT_ID":21423,"ELEMENT_SET_NO":999,"REV_AT_EPOCH":85761,"BSTAR":5.0578935e-5,"MEAN_MOTION_DOT":4.24e-6,"MEAN_MOTION_DDOT":0},{"OBJECT_NAME":"ERS-1","OBJECT_ID":"1991-050A","EPOCH":"2026-04-09T11:46:15.060576","MEAN_MOTION":14.39474736,"ECCENTRICITY":0.0033069,"INCLINATION":98.7854,"RA_OF_ASC_NODE":118.4964,"ARG_OF_PERICENTER":110.3893,"MEAN_ANOMALY":250.0851,"EPHEMERIS_TYPE":0,"CLASSIFICATION_TYPE":"U","NORAD_CAT_ID":21574,"ELEMENT_SET_NO":999,"REV_AT_EPOCH":82016,"BSTAR":0.000118,"MEAN_MOTION_DOT":3.24e-6,"MEAN_MOTION_DDOT":0},{"OBJECT_NAME":"ARIANE 40 R/B","OBJECT_ID":"1991-050F","EPOCH":"2026-04-09T09:34:16.522176","MEAN_MOTION":14.42917735,"ECCENTRICITY":0.00028064,"INCLINATION":98.195,"RA_OF_ASC_NODE":150.473,"ARG_OF_PERICENTER":6.8386,"MEAN_ANOMALY":353.2842,"EPHEMERIS_TYPE":0,"CLASSIFICATION_TYPE":"U","NORAD_CAT_ID":21610,"ELEMENT_SET_NO":999,"REV_AT_EPOCH":82342,"BSTAR":0.00010050575,"MEAN_MOTION_DOT":2.94e-6,"MEAN_MOTION_DDOT":0},{"OBJECT_NAME":"INTERCOSMOS 25","OBJECT_ID":"1991-086A","EPOCH":"2026-04-09T12:41:34.001664","MEAN_MOTION":12.12107208,"ECCENTRICITY":0.148609,"INCLINATION":82.6002,"RA_OF_ASC_NODE":291.3604,"ARG_OF_PERICENTER":50.4793,"MEAN_ANOMALY":321.8459,"EPHEMERIS_TYPE":0,"CLASSIFICATION_TYPE":"U","NORAD_CAT_ID":21819,"ELEMENT_SET_NO":999,"REV_AT_EPOCH":50042,"BSTAR":0.0001831,"MEAN_MOTION_DOT":9.64e-6,"MEAN_MOTION_DDOT":0},{"OBJECT_NAME":"SL-8 R/B","OBJECT_ID":"1992-008B","EPOCH":"2026-04-09T18:46:21.552096","MEAN_MOTION":13.75970126,"ECCENTRICITY":0.0035561,"INCLINATION":82.9253,"RA_OF_ASC_NODE":244.6443,"ARG_OF_PERICENTER":49.4489,"MEAN_ANOMALY":62.265,"EPHEMERIS_TYPE":0,"CLASSIFICATION_TYPE":"U","NORAD_CAT_ID":21876,"ELEMENT_SET_NO":999,"REV_AT_EPOCH":71369,"BSTAR":3.3962e-5,"MEAN_MOTION_DOT":4.8e-7,"MEAN_MOTION_DDOT":0},{"OBJECT_NAME":"SL-8 R/B","OBJECT_ID":"1992-020B","EPOCH":"2026-04-09T13:02:59.822016","MEAN_MOTION":13.75550472,"ECCENTRICITY":0.0028363,"INCLINATION":82.9282,"RA_OF_ASC_NODE":130.8493,"ARG_OF_PERICENTER":209.1745,"MEAN_ANOMALY":261.9869,"EPHEMERIS_TYPE":0,"CLASSIFICATION_TYPE":"U","NORAD_CAT_ID":21938,"ELEMENT_SET_NO":999,"REV_AT_EPOCH":70537,"BSTAR":-1.8312e-5,"MEAN_MOTION_DOT":-3.0e-8,"MEAN_MOTION_DDOT":0},{"OBJECT_NAME":"USA 81","OBJECT_ID":"1992-023A","EPOCH":"2026-04-09T12:51:33.727392","MEAN_MOTION":14.32378633,"ECCENTRICITY":0.0001351,"INCLINATION":85.0036,"RA_OF_ASC_NODE":113.6365,"ARG_OF_PERICENTER":75.2322,"MEAN_ANOMALY":284.902,"EPHEMERIS_TYPE":0,"CLASSIFICATION_TYPE":"U","NORAD_CAT_ID":21949,"ELEMENT_SET_NO":999,"REV_AT_EPOCH":9920,"BSTAR":5.773e-5,"MEAN_MOTION_DOT":1.76e-6,"MEAN_MOTION_DDOT":0},{"OBJECT_NAME":"COSMOS 2219","OBJECT_ID":"1992-076A","EPOCH":"2026-04-09T18:53:37.463424","MEAN_MOTION":14.14088099,"ECCENTRICITY":0.0017499,"INCLINATION":71.0595,"RA_OF_ASC_NODE":313.0639,"ARG_OF_PERICENTER":159.0613,"MEAN_ANOMALY":201.123,"EPHEMERIS_TYPE":0,"CLASSIFICATION_TYPE":"U","NORAD_CAT_ID":22219,"ELEMENT_SET_NO":999,"REV_AT_EPOCH":72277,"BSTAR":2.8914e-6,"MEAN_MOTION_DOT":-4.2e-7,"MEAN_MOTION_DDOT":0},{"OBJECT_NAME":"SL-16 R/B","OBJECT_ID":"1992-076B","EPOCH":"2026-04-09T11:42:33.408288","MEAN_MOTION":14.16863291,"ECCENTRICITY":0.0011194,"INCLINATION":70.9977,"RA_OF_ASC_NODE":123.5003,"ARG_OF_PERICENTER":40.4236,"MEAN_ANOMALY":71.0975,"EPHEMERIS_TYPE":0,"CLASSIFICATION_TYPE":"U","NORAD_CAT_ID":22220,"ELEMENT_SET_NO":999,"REV_AT_EPOCH":72619,"BSTAR":0.00011154,"MEAN_MOTION_DOT":1.76e-6,"MEAN_MOTION_DDOT":0},{"OBJECT_NAME":"COSMOS 2221","OBJECT_ID":"1992-080A","EPOCH":"2026-04-09T20:49:45.046272","MEAN_MOTION":14.96345804,"ECCENTRICITY":0.0015712,"INCLINATION":82.5023,"RA_OF_ASC_NODE":249.2061,"ARG_OF_PERICENTER":88.6268,"MEAN_ANOMALY":271.6754,"EPHEMERIS_TYPE":0,"CLASSIFICATION_TYPE":"U","NORAD_CAT_ID":22236,"ELEMENT_SET_NO":999,"REV_AT_EPOCH":78545,"BSTAR":0.00016957,"MEAN_MOTION_DOT":1.948e-5,"MEAN_MOTION_DDOT":0},{"OBJECT_NAME":"SL-16 R/B","OBJECT_ID":"1992-093B","EPOCH":"2026-04-09T18:19:36.093216","MEAN_MOTION":14.15455028,"ECCENTRICITY":0.0006611,"INCLINATION":71.0209,"RA_OF_ASC_NODE":299.0349,"ARG_OF_PERICENTER":263.2825,"MEAN_ANOMALY":96.7546,"EPHEMERIS_TYPE":0,"CLASSIFICATION_TYPE":"U","NORAD_CAT_ID":22285,"ELEMENT_SET_NO":999,"REV_AT_EPOCH":71755,"BSTAR":-8.4261e-5,"MEAN_MOTION_DOT":-2.12e-6,"MEAN_MOTION_DDOT":0},{"OBJECT_NAME":"COSMOS 2228","OBJECT_ID":"1992-094A","EPOCH":"2026-04-09T19:06:56.640960","MEAN_MOTION":14.97365064,"ECCENTRICITY":0.001766,"INCLINATION":82.5202,"RA_OF_ASC_NODE":207.5287,"ARG_OF_PERICENTER":192.8849,"MEAN_ANOMALY":167.1925,"EPHEMERIS_TYPE":0,"CLASSIFICATION_TYPE":"U","NORAD_CAT_ID":22286,"ELEMENT_SET_NO":999,"REV_AT_EPOCH":78071,"BSTAR":0.00019938,"MEAN_MOTION_DOT":2.348e-5,"MEAN_MOTION_DDOT":0},{"OBJECT_NAME":"SL-16 R/B","OBJECT_ID":"1993-016B","EPOCH":"2026-04-09T12:35:14.090496","MEAN_MOTION":14.15312114,"ECCENTRICITY":0.0012531,"INCLINATION":71.007,"RA_OF_ASC_NODE":150.4233,"ARG_OF_PERICENTER":275.1295,"MEAN_ANOMALY":84.8397,"EPHEMERIS_TYPE":0,"CLASSIFICATION_TYPE":"U","NORAD_CAT_ID":22566,"ELEMENT_SET_NO":999,"REV_AT_EPOCH":70653,"BSTAR":0.00014798,"MEAN_MOTION_DOT":2.41e-6,"MEAN_MOTION_DDOT":0},{"OBJECT_NAME":"COSMOS 2242","OBJECT_ID":"1993-024A","EPOCH":"2026-04-09T15:48:18.602496","MEAN_MOTION":14.96698908,"ECCENTRICITY":0.0015907,"INCLINATION":82.5184,"RA_OF_ASC_NODE":237.0871,"ARG_OF_PERICENTER":196.5125,"MEAN_ANOMALY":163.5581,"EPHEMERIS_TYPE":0,"CLASSIFICATION_TYPE":"U","NORAD_CAT_ID":22626,"ELEMENT_SET_NO":999,"REV_AT_EPOCH":78502,"BSTAR":0.00021759,"MEAN_MOTION_DOT":2.515e-5,"MEAN_MOTION_DDOT":0}]
